COSMOS 2413 (712)       
1 28509U 04053B   16037.93085253  .00000059  00000-0  00000+0 0  9991
2 28509  63.1324 194.7715 0005500 163.4231  74.5629  2.13101749 86509
COSMOS 2419 (714)       
1 28915U 05050A   16037.73091911  .00000031  00000-0  00000+0 0  9996
2 28915  65.2628  82.6042 0015569 344.9832  99.7490  2.13111263 78752
COSMOS 2425 (716)       
1 29670U 06062A   16037.77445124 -.00000031  00000-0  10000-3 0  9998
2 29670  65.6885 321.5719 0023355 343.9124 195.4497  2.13105022 70952
COSMOS 2426 (717)       
1 29671U 06062B   16037.48466228 -.00000033  00000-0  10000-3 0  9997
2 29671  65.7053 321.6599 0015004 167.8973  10.9977  2.13103128 70954
COSMOS 2424 (715)       
1 29672U 06062C   16037.39015497 -.00000033  00000-0  10000-3 0  9996
2 29672  65.6905 321.5944 0014444 167.1413 115.9337  2.13102099 70943
COSMOS 2433 (720)       
1 32275U 07052A   16037.42423927  .00000029  00000-0  10000-3 0  9998
2 32275  65.2785  82.3830 0004495 264.6176 197.9157  2.13105092 64464
COSMOS 2432 (719)       
1 32276U 07052B   16037.49369106  .00000030  00000-0  10000-3 0  9996
2 32276  65.2900  82.4436 0012453 329.3624 140.5635  2.13104285 64465
COSMOS 2434 (721)       
1 32393U 07065A   16038.07040170 -.00000029  00000-0  00000+0 0  9996
2 32393  65.3078 320.9475 0002571  81.3642  49.9747  2.13102783 63185
COSMOS 2436 (723)       
1 32395U 07065C   16037.67194965 -.00000031  00000-0  10000-3 0  9993
2 32395  65.3210 321.0014 0018771 350.5035 287.1515  2.13102866 63105
COSMOS 2443 (725)       
1 33379U 08046B   16037.47922153  .00000030  00000-0  10000-3 0  9990
2 33379  65.2067  81.8102 0018311 190.7698 220.6482  2.13101515 57338
COSMOS 2456 (730)       
1 36111U 09070A   16038.33829376  .00000067  00000-0  00000+0 0  9999
2 36111  64.1869 200.5473 0003550 350.8083 154.9677  2.13102898 47856
COSMOS 2457 (733)       
1 36112U 09070B   16037.47834647  .00000072  00000-0  00000+0 0  9997
2 36112  64.1689 200.5064 0007446 145.9501 190.9874  2.13101567 47838
COSMOS 2458 (734)       
1 36113U 09070C   16037.50019961  .00000072  00000-0  10000-3 0  9991
2 36113  64.1742 200.5105 0003161  61.0122 339.9707  2.13102004 47840
COSMOS 2459 (731)       
1 36400U 10007A   16038.11533603  .00000032  00000-0  10000-3 0  9990
2 36400  65.1856  81.5265 0028523 349.3524 149.8723  2.13102382 46201
COSMOS 2461 (735)       
1 36401U 10007B   16038.23452133  .00000033  00000-0  10000-3 0  9993
2 36401  65.1785  81.5052 0004251  66.7929  74.4129  2.13102353 46209
COSMOS 2460 (732)       
1 36402U 10007C   16038.44584458  .00000033  00000-0  10000-3 0  9993
2 36402  65.1691  81.4765 0001842 264.8306  80.5843  2.13102012 46202
COSMOS 2466 (738)       
1 37137U 10041A   16037.78763780 -.00000031  00000-0  10000-3 0  9999
2 37137  64.8914 321.1258 0018396 154.4075 343.6069  2.13102344 42276
COSMOS 2465 (737)       
1 37138U 10041B   16038.04765084 -.00000030  00000-0  00000+0 0  9993
2 37138  64.9082 321.1871 0032888 169.6270 350.4298  2.13102769 42273
COSMOS 2464 (736)       
1 37139U 10041C   16037.43782499 -.00000033  00000-0  00000+0 0  9998
2 37139  64.9102 321.2017 0023324  10.4243 176.3895  2.13102983 42263
COSMOS 2471 (701K)      
1 37372U 11009A   16037.47978701  .00000030  00000-0  00000+0 0  9995
2 37372  65.1663  81.4590 0009062 239.3337 217.1125  2.13103014 38460
COSMOS 2474 (742)       
1 37829U 11055A   16037.49869774  .00000073  00000-0  00000+0 0  9991
2 37829  64.5112 200.9336 0005557 248.2461 195.4076  2.13101918 33837
COSMOS 2476 (744)       
1 37867U 11064A   16037.65492227  .00000072  00000-0  00000+0 0  9995
2 37867  64.4912 201.0131 0014415 245.0176   4.2589  2.13102016 33186
COSMOS 2477 (745)       
1 37868U 11064B   16038.32869913  .00000068  00000-0  00000+0 0  9996
2 37868  64.4995 201.0293 0012419 246.1125 339.4540  2.13101866 33154
COSMOS 2475 (743)       
1 37869U 11064C   16038.03742731  .00000070  00000-0  00000+0 0  9996
2 37869  64.5067 201.0256 0018010 278.5113  39.6734  2.13102045 33158
COSMOS 2478 (746)       
1 37938U 11071A   16038.35542734  .00000033  00000-0  00000+0 0  9996
2 37938  65.1939  81.6467 0014606 241.9045 285.9470  2.13088547 32771
COSMOS 2485 (747)       
1 39155U 13019A   16038.40342182  .00000068  00000-0  00000+0 0  9992
2 39155  64.6600 200.9093 0014748 238.7494 269.9392  2.13102045 21675
COSMOS 2492 (754)       
1 39620U 14012A   16037.41819830  .00000029  00000-0  10000-3 0  9994
2 39620  65.0574  81.5189 0016308 327.2582 178.3863  2.13103692 14602
COSMOS 2500 (755)       
1 40001U 14032A   16037.49620494  .00000029  00000-0  00000+0 0  9990
2 40001  64.9978  81.5495 0007216 218.0475 211.4104  2.13102988 12825
COSMOS 2501 (702K)      
1 40315U 14075A   16037.43882942 -.00000036  00000-0  00000+0 0  9996
2 40315  64.6782 322.6999 0017433 240.9685 306.3735  2.13101509  9222
